start=new Date('2022-08-25T00:00:00.000Z').valueOf();
sats=[{"EPHEMERIS_TYPE":"0","OBJECT_TYPE":"PAYLOAD","BSTAR":"-0.03891200000000","REV_AT_EPOCH":"130","OBJECT_NAME":"STARLINK-4335","REF_FRAME":"TEME","MEAN_MOTION_DDOT":"0.0000000000000","APOAPSIS":"461.297","COUNTRY_CODE":"US","TLE_LINE1":"1 53215U 22084AC  22236.83334491 -.01211259  00000-0 -38912-1 0  9999","SEMIMAJOR_AXIS":"6838.014","NORAD_CAT_ID":"53215","TIME_SYSTEM":"UTC","INCLINATION":"97.6557","ELEMENT_SET_NO":"999","RCS_SIZE":"LARGE","PERIAPSIS":"458.462","EPOCH":"2022-08-24T20:00:01.000224","FILE":"3546663","CLASSIFICATION_TYPE":"U","MEAN_MOTION_DOT":"-0.01211259","MEAN_MOTION":"15.35351352","DECAY_DATE":null,"CENTER_NAME":"EARTH","MEAN_ELEMENT_THEORY":"SGP4","LAUNCH_DATE":"2022-07-22","TLE_LINE2":"2 53215  97.6557 296.7830 0002073 129.7833 205.4370 15.35351352  1305","PERIOD":"93.790","OBJECT_ID":"2022-084AC","MEAN_ANOMALY":"205.4370","RA_OF_ASC_NODE":"296.7830","GP_ID":"210936616","ECCENTRICITY":"0.00020730","SITE":"AFWTR","ARG_OF_PERICENTER":"129.7833"},{"CENTER_NAME":"EARTH","DECAY_DATE":null,"MEAN_MOTION":"15.35074087","MEAN_MOTION_DOT":"-0.01209669","MEAN_ELEMENT_THEORY":"SGP4","LAUNCH_DATE":"2022-07-22","CLASSIFICATION_TYPE":"U","FILE":"3546663","MEAN_ANOMALY":"213.1682","RA_OF_ASC_NODE":"296.7864","ARG_OF_PERICENTER":"113.0507","SITE":"AFWTR","ECCENTRICITY":"0.00018250","GP_ID":"210936738","OBJECT_ID":"2022-084AD","PERIOD":"93.807","TLE_LINE2":"2 53216  97.6557 296.7864 0001825 113.0507 213.1682 15.35074087  1300","REF_FRAME":"TEME","COUNTRY_CODE":"US","MEAN_MOTION_DDOT":"0.0000000000000","APOAPSIS":"461.951","OBJECT_TYPE":"PAYLOAD","EPHEMERIS_TYPE":"0","REV_AT_EPOCH":"130","OBJECT_NAME":"STARLINK-4376","BSTAR":"-0.03920500000000","ELEMENT_SET_NO":"999","INCLINATION":"97.6557","EPOCH":"2022-08-24T20:00:01.000224","PERIAPSIS":"459.454","RCS_SIZE":"LARGE","NORAD_CAT_ID":"53216","SEMIMAJOR_AXIS":"6838.837","TLE_LINE1":"1 53216U 22084AD  22236.83334491 -.01209669  00000-0 -39205-1 0  9998","TIME_SYSTEM":"UTC"},{"OBJECT_ID":"2022-084AE","PERIOD":"93.786","TLE_LINE2":"2 53217  97.6557 296.7807 0001911 124.1448 213.9290 15.35414950  1301","ARG_OF_PERICENTER":"124.1448","SITE":"AFWTR","GP_ID":"210936884","ECCENTRICITY":"0.00019110","RA_OF_ASC_NODE":"296.7807","MEAN_ANOMALY":"213.9290","CLASSIFICATION_TYPE":"U","FILE":"3546663","LAUNCH_DATE":"2022-07-22","MEAN_ELEMENT_THEORY":"SGP4","CENTER_NAME":"EARTH","DECAY_DATE":null,"MEAN_MOTION":"15.35414950","MEAN_MOTION_DOT":"-0.01210340","TIME_SYSTEM":"UTC","NORAD_CAT_ID":"53217","SEMIMAJOR_AXIS":"6837.825","TLE_LINE1":"1 53217U 22084AE  22236.83334491 -.01210340  00000-0 -38802-1 0  9999","EPOCH":"2022-08-24T20:00:01.000224","PERIAPSIS":"458.384","RCS_SIZE":"LARGE","ELEMENT_SET_NO":"999","INCLINATION":"97.6557","REV_AT_EPOCH":"130","OBJECT_NAME":"STARLINK-4379","BSTAR":"-0.03880200000000","OBJECT_TYPE":"PAYLOAD","EPHEMERIS_TYPE":"0","COUNTRY_CODE":"US","APOAPSIS":"460.997","MEAN_MOTION_DDOT":"0.0000000000000","REF_FRAME":"TEME"},{"TLE_LINE1":"1 53218U 22084AF  22236.83334491 -.01210181  00000-0 -39018-1 0  9993","SEMIMAJOR_AXIS":"6838.352","NORAD_CAT_ID":"53218","TIME_SYSTEM":"UTC","INCLINATION":"97.6558","ELEMENT_SET_NO":"999","RCS_SIZE":"LARGE","PERIAPSIS":"458.951","EPOCH":"2022-08-24T20:00:01.000224","EPHEMERIS_TYPE":"0","OBJECT_TYPE":"PAYLOAD","BSTAR":"-0.03901800000000","OBJECT_NAME":"STARLINK-4384","REV_AT_EPOCH":"130","REF_FRAME":"TEME","APOAPSIS":"461.482","MEAN_MOTION_DDOT":"0.0000000000000","COUNTRY_CODE":"US","TLE_LINE2":"2 53218  97.6558 296.7855 0001851 115.2606 216.0263 15.35237716  1303","PERIOD":"93.797","OBJECT_ID":"2022-084AF","MEAN_ANOMALY":"216.0263","RA_OF_ASC_NODE":"296.7855","ECCENTRICITY":"0.00018510","GP_ID":"210937178","SITE":"AFWTR","ARG_OF_PERICENTER":"115.2606","FILE":"3546663","CLASSIFICATION_TYPE":"U","MEAN_MOTION_DOT":"-0.01210181","MEAN_MOTION":"15.35237716","DECAY_DATE":null,"CENTER_NAME":"EARTH","LAUNCH_DATE":"2022-07-22","MEAN_ELEMENT_THEORY":"SGP4"},{"REF_FRAME":"TEME","COUNTRY_CODE":"US","APOAPSIS":"460.457","MEAN_MOTION_DDOT":"0.0000000000000","OBJECT_TYPE":"PAYLOAD","EPHEMERIS_TYPE":"0","REV_AT_EPOCH":"130","OBJECT_NAME":"STARLINK-4373","BSTAR":"-0.03860400000000","ELEMENT_SET_NO":"999","INCLINATION":"97.6556","EPOCH":"2022-08-24T20:00:01.000224","PERIAPSIS":"457.994","RCS_SIZE":"LARGE","NORAD_CAT_ID":"53219","SEMIMAJOR_AXIS":"6837.360","TLE_LINE1":"1 53219U 22084AG  22236.83334491 -.01210211  00000-0 -38604-1 0  9998","TIME_SYSTEM":"UTC","CENTER_NAME":"EARTH","DECAY_DATE":null,"MEAN_MOTION":"15.35571597","MEAN_MOTION_DOT":"-0.01210211","MEAN_ELEMENT_THEORY":"SGP4","LAUNCH_DATE":"2022-07-22","CLASSIFICATION_TYPE":"U","FILE":"3546663","MEAN_ANOMALY":"229.0775","RA_OF_ASC_NODE":"296.7778","ARG_OF_PERICENTER":"114.5731","SITE":"AFWTR","ECCENTRICITY":"0.00018010","GP_ID":"210937030","OBJECT_ID":"2022-084AG","PERIOD":"93.776","TLE_LINE2":"2 53219  97.6556 296.7778 0001801 114.5731 229.0775 15.35571597  1302"},{"APOAPSIS":"461.074","MEAN_MOTION_DDOT":"0.0000000000000","COUNTRY_CODE":"US","REF_FRAME":"TEME","BSTAR":"-0.03889400000000","REV_AT_EPOCH":"130","OBJECT_NAME":"STARLINK-4363","OBJECT_TYPE":"PAYLOAD","EPHEMERIS_TYPE":"0","RCS_SIZE":"LARGE","EPOCH":"2022-08-24T20:00:01.000224","PERIAPSIS":"458.680","INCLINATION":"97.6557","ELEMENT_SET_NO":"999","TIME_SYSTEM":"UTC","SEMIMAJOR_AXIS":"6838.012","TLE_LINE1":"1 53220U 22084AH  22236.83334491 -.01210681  00000-0 -38894-1 0  9992","NORAD_CAT_ID":"53220","MEAN_ELEMENT_THEORY":"SGP4","LAUNCH_DATE":"2022-07-22","MEAN_MOTION":"15.35352028","MEAN_MOTION_DOT":"-0.01210681","CENTER_NAME":"EARTH","DECAY_DATE":null,"CLASSIFICATION_TYPE":"U","FILE":"3546663","SITE":"AFWTR","ECCENTRICITY":"0.00017500","GP_ID":"210936325","ARG_OF_PERICENTER":"104.6144","RA_OF_ASC_NODE":"296.7818","MEAN_ANOMALY":"231.3509","PERIOD":"93.790","TLE_LINE2":"2 53220  97.6557 296.7818 0001750 104.6144 231.3509 15.35352028  1308","OBJECT_ID":"2022-084AH"},{"INCLINATION":"97.6556","ELEMENT_SET_NO":"999","RCS_SIZE":"LARGE","PERIAPSIS":"457.815","EPOCH":"2022-08-24T22:00:00.999936","TLE_LINE1":"1 53221U 22084AJ  22236.91667824 -.01214070  00000-0 -38664-1 0  9992","SEMIMAJOR_AXIS":"6837.180","NORAD_CAT_ID":"53221","TIME_SYSTEM":"UTC","REF_FRAME":"TEME","APOAPSIS":"460.275","MEAN_MOTION_DDOT":"0.0000000000000","COUNTRY_CODE":"US","EPHEMERIS_TYPE":"0","OBJECT_TYPE":"PAYLOAD","BSTAR":"-0.03866400000000","REV_AT_EPOCH":"130","OBJECT_NAME":"STARLINK-4377","MEAN_ANOMALY":"343.8531","RA_OF_ASC_NODE":"296.8660","GP_ID":"210936471","ECCENTRICITY":"0.00017990","SITE":"AFWTR","ARG_OF_PERICENTER":"106.8429","TLE_LINE2":"2 53221  97.6556 296.8660 0001799 106.8429 343.8531 15.35632234  1301","PERIOD":"93.772","OBJECT_ID":"2022-084AJ","MEAN_MOTION_DOT":"-0.01214070","MEAN_MOTION":"15.35632234","DECAY_DATE":null,"CENTER_NAME":"EARTH","MEAN_ELEMENT_THEORY":"SGP4","LAUNCH_DATE":"2022-07-22","FILE":"3546663","CLASSIFICATION_TYPE":"U"},{"OBJECT_ID":"2022-084AK","TLE_LINE2":"2 53222  97.6557 296.8669 0001830 114.5772 324.6326 15.35204839  1300","PERIOD":"93.799","ARG_OF_PERICENTER":"114.5772","GP_ID":"210937346","ECCENTRICITY":"0.00018300","SITE":"AFWTR","RA_OF_ASC_NODE":"296.8669","MEAN_ANOMALY":"324.6326","FILE":"3546663","CLASSIFICATION_TYPE":"U","LAUNCH_DATE":"2022-07-22","MEAN_ELEMENT_THEORY":"SGP4","DECAY_DATE":null,"CENTER_NAME":"EARTH","MEAN_MOTION_DOT":"-0.01213356","MEAN_MOTION":"15.35204839","TIME_SYSTEM":"UTC","NORAD_CAT_ID":"53222","TLE_LINE1":"1 53222U 22084AK  22236.91667824 -.01213356  00000-0 -39172-1 0  9994","SEMIMAJOR_AXIS":"6838.449","PERIAPSIS":"459.063","EPOCH":"2022-08-24T22:00:00.999936","RCS_SIZE":"LARGE","ELEMENT_SET_NO":"999","INCLINATION":"97.6557","REV_AT_EPOCH":"130","OBJECT_NAME":"STARLINK-4381","BSTAR":"-0.03917200000000","EPHEMERIS_TYPE":"0","OBJECT_TYPE":"PAYLOAD","COUNTRY_CODE":"US","APOAPSIS":"461.566","MEAN_MOTION_DDOT":"0.0000000000000","REF_FRAME":"TEME"},{"RA_OF_ASC_NODE":"296.8651","MEAN_ANOMALY":"344.8984","ARG_OF_PERICENTER":"110.6059","SITE":"AFWTR","GP_ID":"210936617","ECCENTRICITY":"0.00018350","OBJECT_ID":"2022-084AL","PERIOD":"93.763","TLE_LINE2":"2 53223  97.6556 296.8651 0001835 110.6059 344.8984 15.35789076  1306","CENTER_NAME":"EARTH","DECAY_DATE":null,"MEAN_MOTION":"15.35789076","MEAN_MOTION_DOT":"-0.01214062","LAUNCH_DATE":"2022-07-22","MEAN_ELEMENT_THEORY":"SGP4","CLASSIFICATION_TYPE":"U","FILE":"3546663","ELEMENT_SET_NO":"999","INCLINATION":"97.6556","EPOCH":"2022-08-24T22:00:00.999936","PERIAPSIS":"457.325","RCS_SIZE":"LARGE","NORAD_CAT_ID":"53223","SEMIMAJOR_AXIS":"6836.715","TLE_LINE1":"1 53223U 22084AL  22236.91667824 -.01214062  00000-0 -38469-1 0  9998","TIME_SYSTEM":"UTC","REF_FRAME":"TEME","COUNTRY_CODE":"US","APOAPSIS":"459.834","MEAN_MOTION_DDOT":"0.0000000000000","OBJECT_TYPE":"PAYLOAD","EPHEMERIS_TYPE":"0","REV_AT_EPOCH":"130","OBJECT_NAME":"STARLINK-4354","BSTAR":"-0.03846900000000"},{"PERIOD":"93.797","TLE_LINE2":"2 53224  97.6557 296.8653 0001765 104.5455 336.0899 15.35236841  1309","OBJECT_ID":"2022-084AM","SITE":"AFWTR","GP_ID":"210936739","ECCENTRICITY":"0.00017650","ARG_OF_PERICENTER":"104.5455","RA_OF_ASC_NODE":"296.8653","MEAN_ANOMALY":"336.0899","CLASSIFICATION_TYPE":"U","FILE":"3546663","MEAN_ELEMENT_THEORY":"SGP4","LAUNCH_DATE":"2022-07-22","MEAN_MOTION":"15.35236841","MEAN_MOTION_DOT":"-0.01213821","CENTER_NAME":"EARTH","DECAY_DATE":null,"TIME_SYSTEM":"UTC","SEMIMAJOR_AXIS":"6838.354","TLE_LINE1":"1 53224U 22084AM  22236.91667824 -.01213821  00000-0 -39149-1 0  9997","NORAD_CAT_ID":"53224","RCS_SIZE":"LARGE","EPOCH":"2022-08-24T22:00:00.999936","PERIAPSIS":"459.012","INCLINATION":"97.6557","ELEMENT_SET_NO":"999","BSTAR":"-0.03914900000000","REV_AT_EPOCH":"130","OBJECT_NAME":"STARLINK-4356","OBJECT_TYPE":"PAYLOAD","EPHEMERIS_TYPE":"0","APOAPSIS":"461.426","MEAN_MOTION_DDOT":"0.0000000000000","COUNTRY_CODE":"US","REF_FRAME":"TEME"}];
